start=new Date('2021-10-23T00:00:00.000Z').valueOf();
sats=[{"ECCENTRICITY":"0.00018720","GP_ID":"187905903","RCS_SIZE":"LARGE","NORAD_CAT_ID":"47763","COUNTRY_CODE":"US","REF_FRAME":"TEME","MEAN_ANOMALY":"285.8805","TIME_SYSTEM":"UTC","MEAN_ELEMENT_THEORY":"SGP4","ELEMENT_SET_NO":"999","PERIOD":"95.592","INCLINATION":"53.0550","LAUNCH_DATE":"2021-03-04","OBJECT_TYPE":"PAYLOAD","REV_AT_EPOCH":"3598","TLE_LINE2":"2 47763  53.0550 195.7426 0001872  74.2390 285.8805 15.06394929 35983","TLE_LINE1":"1 47763U 21017AT  21295.45789595  .00001341  00000-0  10896-3 0  9995","ARG_OF_PERICENTER":"74.2390","CENTER_NAME":"EARTH","SITE":"AFETR","DECAY_DATE":null,"CLASSIFICATION_TYPE":"U","PERIAPSIS":"545.933","MEAN_MOTION_DDOT":"0.0000000000000","SEMIMAJOR_AXIS":"6925.364","RA_OF_ASC_NODE":"195.7426","OBJECT_ID":"2021-017AT","FILE":"3178774","BSTAR":"0.00010896000000","MEAN_MOTION":"15.06394929","EPHEMERIS_TYPE":"0","OBJECT_NAME":"STARLINK-2181","APOAPSIS":"548.526","MEAN_MOTION_DOT":"0.00001341","EPOCH":"2021-10-22T10:59:22.210080"},{"RA_OF_ASC_NODE":"205.6857","EPHEMERIS_TYPE":"0","FILE":"3178676","MEAN_MOTION":"15.06385183","BSTAR":"-0.00000985080000","OBJECT_ID":"2021-017AU","EPOCH":"2021-10-22T11:51:08.631360","MEAN_MOTION_DOT":"-0.00000428","APOAPSIS":"548.492","OBJECT_NAME":"STARLINK-2182","CENTER_NAME":"EARTH","SITE":"AFETR","PERIAPSIS":"546.026","CLASSIFICATION_TYPE":"U","DECAY_DATE":null,"SEMIMAJOR_AXIS":"6925.394","MEAN_MOTION_DDOT":"0.0000000000000","LAUNCH_DATE":"2021-03-04","OBJECT_TYPE":"PAYLOAD","INCLINATION":"53.0560","PERIOD":"95.593","REV_AT_EPOCH":"3653","TLE_LINE1":"1 47764U 21017AU  21295.49384990 -.00000428  00000-0 -98508-5 0  9995","TLE_LINE2":"2 47764  53.0560 205.6857 0001780  67.9577 292.1601 15.06385183 36537","ARG_OF_PERICENTER":"67.9577","ECCENTRICITY":"0.00017800","MEAN_ANOMALY":"292.1601","REF_FRAME":"TEME","COUNTRY_CODE":"US","GP_ID":"187902156","RCS_SIZE":"LARGE","NORAD_CAT_ID":"47764","TIME_SYSTEM":"UTC","ELEMENT_SET_NO":"999","MEAN_ELEMENT_THEORY":"SGP4"},{"RA_OF_ASC_NODE":"186.1149","EPHEMERIS_TYPE":"0","OBJECT_ID":"2021-017AV","FILE":"3178676","MEAN_MOTION":"15.06389279","BSTAR":"0.00000349470000","EPOCH":"2021-10-22T09:30:29.224512","MEAN_MOTION_DOT":"-0.00000230","OBJECT_NAME":"STARLINK-2183","APOAPSIS":"548.402","SITE":"AFETR","CENTER_NAME":"EARTH","CLASSIFICATION_TYPE":"U","DECAY_DATE":null,"PERIAPSIS":"546.091","MEAN_MOTION_DDOT":"0.0000000000000","SEMIMAJOR_AXIS":"6925.381","OBJECT_TYPE":"PAYLOAD","LAUNCH_DATE":"2021-03-04","PERIOD":"95.593","INCLINATION":"53.0554","REV_AT_EPOCH":"3675","TLE_LINE1":"1 47765U 21017AV  21295.39617158 -.00000230  00000-0  34947-5 0  9997","TLE_LINE2":"2 47765  53.0554 186.1149 0001668  62.3056 297.8102 15.06389279 36756","ARG_OF_PERICENTER":"62.3056","ECCENTRICITY":"0.00016680","REF_FRAME":"TEME","MEAN_ANOMALY":"297.8102","GP_ID":"187902408","RCS_SIZE":"LARGE","NORAD_CAT_ID":"47765","COUNTRY_CODE":"US","ELEMENT_SET_NO":"999","MEAN_ELEMENT_THEORY":"SGP4","TIME_SYSTEM":"UTC"},{"ARG_OF_PERICENTER":"72.1374","TLE_LINE1":"1 47766U 21017AW  21295.44593131  .00000264  00000-0  36641-4 0  9996","TLE_LINE2":"2 47766  53.0556 205.8997 0001637  72.1374 287.9794 15.06394413 36468","REV_AT_EPOCH":"3646","OBJECT_TYPE":"PAYLOAD","LAUNCH_DATE":"2021-03-04","INCLINATION":"53.0556","PERIOD":"95.592","ELEMENT_SET_NO":"999","TIME_SYSTEM":"UTC","MEAN_ELEMENT_THEORY":"SGP4","MEAN_ANOMALY":"287.9794","REF_FRAME":"TEME","COUNTRY_CODE":"US","GP_ID":"187903158","RCS_SIZE":"LARGE","NORAD_CAT_ID":"47766","ECCENTRICITY":"0.00016370","EPOCH":"2021-10-22T10:42:08.465184","MEAN_MOTION_DOT":"0.00000264","OBJECT_NAME":"STARLINK-2184","APOAPSIS":"548.364","EPHEMERIS_TYPE":"0","FILE":"3178676","MEAN_MOTION":"15.06394413","BSTAR":"0.00003664100000","OBJECT_ID":"2021-017AW","RA_OF_ASC_NODE":"205.8997","MEAN_MOTION_DDOT":"0.0000000000000","SEMIMAJOR_AXIS":"6925.366","PERIAPSIS":"546.097","CLASSIFICATION_TYPE":"U","DECAY_DATE":null,"CENTER_NAME":"EARTH","SITE":"AFETR"},{"ARG_OF_PERICENTER":"84.8812","TLE_LINE2":"2 47767  53.0556 191.0860 0001533  84.8812 275.2352 15.06382963 36733","TLE_LINE1":"1 47767U 21017AX  21295.40492803 -.00000579  00000-0 -19954-4 0  9996","REV_AT_EPOCH":"3673","INCLINATION":"53.0556","PERIOD":"95.593","OBJECT_TYPE":"PAYLOAD","LAUNCH_DATE":"2021-03-04","TIME_SYSTEM":"UTC","MEAN_ELEMENT_THEORY":"SGP4","ELEMENT_SET_NO":"999","COUNTRY_CODE":"US","RCS_SIZE":"LARGE","GP_ID":"187901906","NORAD_CAT_ID":"47767","MEAN_ANOMALY":"275.2352","REF_FRAME":"TEME","ECCENTRICITY":"0.00015330","OBJECT_NAME":"STARLINK-2185","APOAPSIS":"548.327","MEAN_MOTION_DOT":"-0.00000579","EPOCH":"2021-10-22T09:43:05.781792","BSTAR":"-0.00001995400000","FILE":"3178676","MEAN_MOTION":"15.06382963","OBJECT_ID":"2021-017AX","EPHEMERIS_TYPE":"0","RA_OF_ASC_NODE":"191.0860","MEAN_MOTION_DDOT":"0.0000000000000","SEMIMAJOR_AXIS":"6925.401","PERIAPSIS":"546.204","CLASSIFICATION_TYPE":"U","DECAY_DATE":null,"CENTER_NAME":"EARTH","SITE":"AFETR"},{"SEMIMAJOR_AXIS":"6925.388","MEAN_MOTION_DDOT":"0.0000000000000","CLASSIFICATION_TYPE":"U","DECAY_DATE":null,"PERIAPSIS":"546.049","CENTER_NAME":"EARTH","SITE":"AFETR","OBJECT_NAME":"STARLINK-2189","APOAPSIS":"548.458","EPOCH":"2021-10-22T11:23:14.447328","MEAN_MOTION_DOT":"-0.00000218","OBJECT_ID":"2021-017AY","FILE":"3178676","MEAN_MOTION":"15.06386985","BSTAR":"0.00000428500000","EPHEMERIS_TYPE":"0","RA_OF_ASC_NODE":"205.7862","ELEMENT_SET_NO":"999","TIME_SYSTEM":"UTC","MEAN_ELEMENT_THEORY":"SGP4","RCS_SIZE":"LARGE","GP_ID":"187901657","NORAD_CAT_ID":"47768","COUNTRY_CODE":"US","REF_FRAME":"TEME","MEAN_ANOMALY":"295.8314","ECCENTRICITY":"0.00017390","ARG_OF_PERICENTER":"64.2855","TLE_LINE2":"2 47768  53.0562 205.7862 0001739  64.2855 295.8314 15.06386985 36502","TLE_LINE1":"1 47768U 21017AY  21295.47447277 -.00000218  00000-0  42850-5 0  9990","REV_AT_EPOCH":"3650","PERIOD":"95.593","INCLINATION":"53.0562","OBJECT_TYPE":"PAYLOAD","LAUNCH_DATE":"2021-03-04"},{"SEMIMAJOR_AXIS":"6925.392","MEAN_MOTION_DDOT":"0.0000000000000","SITE":"AFETR","CENTER_NAME":"EARTH","CLASSIFICATION_TYPE":"U","DECAY_DATE":null,"PERIAPSIS":"546.108","EPOCH":"2021-10-22T09:19:13.207584","MEAN_MOTION_DOT":"0.00000686","APOAPSIS":"548.406","OBJECT_NAME":"STARLINK-2192","RA_OF_ASC_NODE":"171.1619","EPHEMERIS_TYPE":"0","OBJECT_ID":"2021-017AZ","BSTAR":"0.00006494100000","FILE":"3178676","MEAN_MOTION":"15.06385938","ELEMENT_SET_NO":"999","TIME_SYSTEM":"UTC","MEAN_ELEMENT_THEORY":"SGP4","ECCENTRICITY":"0.00016590","REF_FRAME":"TEME","MEAN_ANOMALY":"287.3182","GP_ID":"187902908","RCS_SIZE":"LARGE","NORAD_CAT_ID":"47769","COUNTRY_CODE":"US","TLE_LINE1":"1 47769U 21017AZ  21295.38834731  .00000686  00000-0  64941-4 0  9998","TLE_LINE2":"2 47769  53.0506 171.1619 0001659  72.7988 287.3182 15.06385938 37001","ARG_OF_PERICENTER":"72.7988","OBJECT_TYPE":"PAYLOAD","LAUNCH_DATE":"2021-03-04","PERIOD":"95.593","INCLINATION":"53.0506","REV_AT_EPOCH":"3700"},{"EPHEMERIS_TYPE":"0","FILE":"3178676","MEAN_MOTION":"15.06384235","BSTAR":"-0.00000519470000","OBJECT_ID":"2021-017BA","RA_OF_ASC_NODE":"186.1361","MEAN_MOTION_DOT":"-0.00000359","EPOCH":"2021-10-22T09:23:49.302240","APOAPSIS":"548.336","OBJECT_NAME":"STARLINK-2193","PERIAPSIS":"546.188","DECAY_DATE":null,"CLASSIFICATION_TYPE":"U","CENTER_NAME":"EARTH","SITE":"AFETR","MEAN_MOTION_DDOT":"0.0000000000000","SEMIMAJOR_AXIS":"6925.397","REV_AT_EPOCH":"3677","OBJECT_TYPE":"PAYLOAD","LAUNCH_DATE":"2021-03-04","INCLINATION":"53.0546","PERIOD":"95.593","ARG_OF_PERICENTER":"77.1151","TLE_LINE1":"1 47770U 21017BA  21295.39154285 -.00000359  00000-0 -51947-5 0  9992","TLE_LINE2":"2 47770  53.0546 186.1361 0001551  77.1151 283.0011 15.06384235 36775","MEAN_ANOMALY":"283.0011","REF_FRAME":"TEME","COUNTRY_CODE":"US","GP_ID":"187902659","RCS_SIZE":"LARGE","NORAD_CAT_ID":"47770","ECCENTRICITY":"0.00015510","TIME_SYSTEM":"UTC","MEAN_ELEMENT_THEORY":"SGP4","ELEMENT_SET_NO":"999"},{"EPOCH":"2021-10-22T16:08:34.108800","MEAN_MOTION_DOT":"0.00001048","APOAPSIS":"548.350","OBJECT_NAME":"STARLINK-2194","RA_OF_ASC_NODE":"184.8733","EPHEMERIS_TYPE":"0","BSTAR":"0.00008923600000","FILE":"3179071","MEAN_MOTION":"15.06393206","OBJECT_ID":"2021-017BB","MEAN_MOTION_DDOT":"0.0000000000000","SEMIMAJOR_AXIS":"6925.369","SITE":"AFETR","CENTER_NAME":"EARTH","PERIAPSIS":"546.119","CLASSIFICATION_TYPE":"U","DECAY_DATE":null,"TLE_LINE1":"1 47771U 21017BB  21295.67261700  .00001048  00000-0  89236-4 0  9990","TLE_LINE2":"2 47771  53.0551 184.8733 0001611  73.3852 286.7314 15.06393206 36823","ARG_OF_PERICENTER":"73.3852","OBJECT_TYPE":"PAYLOAD","LAUNCH_DATE":"2021-03-04","INCLINATION":"53.0551","PERIOD":"95.593","REV_AT_EPOCH":"3682","MEAN_ELEMENT_THEORY":"SGP4","ELEMENT_SET_NO":"999","TIME_SYSTEM":"UTC","ECCENTRICITY":"0.00016110","MEAN_ANOMALY":"286.7314","REF_FRAME":"TEME","COUNTRY_CODE":"US","GP_ID":"187933754","RCS_SIZE":"LARGE","NORAD_CAT_ID":"47771"},{"MEAN_MOTION_DDOT":"0.0000000000000","SEMIMAJOR_AXIS":"6925.341","PERIAPSIS":"545.812","CLASSIFICATION_TYPE":"U","DECAY_DATE":null,"SITE":"AFETR","CENTER_NAME":"EARTH","EPOCH":"2021-10-22T17:28:49.514304","MEAN_MOTION_DOT":"0.00001497","APOAPSIS":"548.600","OBJECT_NAME":"STARLINK-2195","EPHEMERIS_TYPE":"0","FILE":"3179071","MEAN_MOTION":"15.06402548","BSTAR":"0.00011938000000","OBJECT_ID":"2021-017BC","RA_OF_ASC_NODE":"199.6248","MEAN_ELEMENT_THEORY":"SGP4","TIME_SYSTEM":"UTC","ELEMENT_SET_NO":"999","MEAN_ANOMALY":"296.0555","REF_FRAME":"TEME","COUNTRY_CODE":"US","NORAD_CAT_ID":"47772","GP_ID":"187934506","RCS_SIZE":"LARGE","ECCENTRICITY":"0.00020130","ARG_OF_PERICENTER":"64.0641","TLE_LINE1":"1 47772U 21017BC  21295.72835086  .00001497  00000-0  11938-3 0  9992","TLE_LINE2":"2 47772  53.0547 199.6248 0002013  64.0641 296.0555 15.06402548 36599","REV_AT_EPOCH":"3659","OBJECT_TYPE":"PAYLOAD","LAUNCH_DATE":"2021-03-04","INCLINATION":"53.0547","PERIOD":"95.592"}];
